     2.100          NAVIGATION                              RINEX VERSION / TYPE
fic2rin                                 04/23/2010 00:15:52 PGM / RUN BY / DATE
                                                            END OF HEADER
17 10  4 22  2  0  0.0  .145871192217D-03  .250111042988D-11  .000000000000D+00
     .940000000000D+02 -.360937500000D+02  .444197074020D-08  .138036405697D+01
    -.174902379513D-05  .536285294220D-02  .109896063805D-04  .515359666634D+04
     .352800000000D+06 -.391155481339D-07 -.102989068514D+01  .102445483208D-06
     .959987461983D+00  .169562500000D+03 -.252080808310D+01 -.797354641593D-08
     .907180644858D-10  .100000000000D+01  .158000000000D+04  .000000000000D+00
     .340000000000D+01  .000000000000D+00 -.102445483208D-07  .940000000000D+02
     .345606000000D+06  .400000000000D+01
18 10  4 22  2  0  0.0  .634067691863D-04  .250111042988D-11  .000000000000D+00
     .600000000000D+02  .130312500000D+02  .489377527395D-08  .286540769402D+01
     .679865479469D-06  .111927966354D-01  .805221498013D-05  .515368638802D+04
     .352800000000D+06 -.279396772385D-07  .106494659107D+01 -.121071934700D-06
     .937766008461D+00  .212281250000D+03 -.234611535621D+01 -.811319509000D-08
    -.221437795202D-09  .100000000000D+01  .158000000000D+04  .000000000000D+00
     .240000000000D+01  .000000000000D+00 -.107102096081D-07  .600000000000D+02
     .345606000000D+06  .400000000000D+01
19 10  4 22  2  0  0.0 -.297143124044D-04 -.261479726760D-11  .000000000000D+00
     .103000000000D+03 -.220937500000D+02  .458947688442D-08  .773653871686D+00
    -.114925205708D-05  .639903976116D-02  .102482736111D-04  .515372619057D+04
     .352800000000D+06  .102445483208D-06 -.974751990493D+00  .856816768646D-07
     .957653035327D+00  .174593750000D+03 -.170472212623D+00 -.804926385558D-08
     .128576784311D-09  .100000000000D+01  .158000000000D+04  .000000000000D+00
     .240000000000D+01  .000000000000D+00 -.149011611938D-07  .103000000000D+03
     .345606000000D+06  .400000000000D+01
20 10  4 22  2  0  0.0  .573382712901D-04 -.568434188608D-12  .000000000000D+00
     .600000000000D+01  .165312500000D+02  .500663711796D-08  .300912889155D+01
     .864267349243D-06  .432813842781D-02  .773742794991D-05  .515362671280D+04
     .352800000000D+06  .521540641785D-07  .101100147666D+01 -.745058059692D-08
     .937652235859D+00  .217406250000D+03  .131721337255D+01 -.822962851135D-08
    -.323584907182D-09  .100000000000D+01  .158000000000D+04  .000000000000D+00
     .240000000000D+01  .000000000000D+00 -.791624188423D-08  .600000000000D+01
     .345606000000D+06  .400000000000D+01
21 10  4 22  2  0  0.0 -.550737604499D-04 -.250111042988D-11  .000000000000D+00
     .520000000000D+02  .248750000000D+02  .522771775543D-08 -.231070697187D+01
     .102631747723D-05  .163750505308D-01  .698678195477D-05  .515368135643D+04
     .352800000000D+06  .124797224998D-06  .811139944949D-02 -.193715095520D-06
     .933088035319D+00  .229281250000D+03 -.249643428941D+01 -.823998608564D-08
     .221437795202D-09  .100000000000D+01  .158000000000D+04  .000000000000D+00
     .240000000000D+01  .000000000000D+00 -.121071934700D-07  .520000000000D+02
     .345606000000D+06  .400000000000D+01
22 10  4 22  2  0  0.0  .173890963197D-03 -.909494701773D-12  .000000000000D+00
     .600000000000D+01  .146250000000D+02  .507878298027D-08  .191052369344D+01
     .817701220512D-06  .517165928613D-02  .770203769207D-05  .515365716743D+04
     .352800000000D+06 -.316649675369D-07  .106993285372D+01 -.102445483208D-06
     .935443113989D+00  .217250000000D+03 -.192980009098D+01 -.833070415012D-08
    -.226080845746D-09  .100000000000D+01  .158000000000D+04  .000000000000D+00
     .240000000000D+01  .000000000000D+00 -.176951289177D-07  .600000000000D+01
     .345606000000D+06  .400000000000D+01
23 10  4 22  2  0  0.0  .373447313905D-03 -.125055521494D-11  .000000000000D+00
     .540000000000D+02  .685625000000D+02  .423910514717D-08  .236420995586D+00
     .356696546078D-05  .653588888235D-02  .869855284691D-05  .515370475388D+04
     .352800000000D+06  .108033418655D-06  .209746409484D+01 -.130385160446D-07
     .968082206110D+00  .215156250000D+03  .300524733833D+01 -.808855120634D-08
     .760745973838D-10  .100000000000D+01  .158000000000D+04  .000000000000D+00
     .240000000000D+01  .000000000000D+00 -.200234353542D-07  .540000000000D+02
     .345606000000D+06  .400000000000D+01
24 10  4 22  2  0  0.0  .281074084342D-03  .318323145621D-11  .000000000000D+00
     .540000000000D+02  .284062500000D+02  .489306095849D-08  .174325368268D+01
     .141933560371D-05  .572107429616D-02  .703334808350D-05  .515487775803D+04
     .352800000000D+06  .186264514923D-07  .459345612217D-01  .104308128357D-06
     .949696898299D+00  .237843750000D+03 -.478675539398D+00 -.816891169653D-08
    -.171435712414D-10  .100000000000D+01  .158000000000D+04  .000000000000D+00
     .340000000000D+01  .000000000000D+00 -.139698386192D-08  .540000000000D+02
     .345606000000D+06  .400000000000D+01
26 10  4 22  2  0  0.0 -.423290766776D-04 -.466116034659D-11  .000000000000D+00
     .960000000000D+02  .564375000000D+02  .373229832235D-08 -.111065682697D+01
     .346638262272D-05  .194332227111D-01  .802241265774D-05  .515235463142D+04
     .352800000000D+06  .208616256714D-06  .215409253309D+01  .379979610443D-06
     .990727114435D+00  .239468750000D+03  .108184010134D+01 -.783532637279D-08
     .882179603464D-10  .100000000000D+01  .158000000000D+04  .000000000000D+00
     .240000000000D+01  .000000000000D+00 -.605359673500D-08  .960000000000D+02
     .345606000000D+06  .400000000000D+01
27 10  4 22  2  0  0.0  .145199708641D-03  .341060513165D-11  .000000000000D+00
     .710000000000D+02  .192812500000D+02  .450018745087D-08  .982373820018D+00
     .623986124992D-06  .215624212287D-01  .514276325703D-05  .515363648224D+04
     .352800000000D+06 -.266358256340D-06  .308289238394D+01 -.316649675369D-06
     .978289640936D+00  .295500000000D+03 -.143125165504D+01 -.845713798803D-08
     .155363614375D-09  .100000000000D+01  .158000000000D+04  .000000000000D+00
     .240000000000D+01  .000000000000D+00 -.419095158577D-08  .710000000000D+02
     .345606000000D+06  .400000000000D+01
28 10  4 22  2  0  0.0 -.179875642061D-04  .795807864051D-12  .000000000000D+00
     .470000000000D+02 -.102937500000D+03  .436446751188D-08  .204245600367D+01
    -.561773777008D-05  .159317421494D-01  .657886266708D-05  .515367387199D+04
     .352800000000D+06  .167638063431D-07 -.206547975804D+01 -.344589352608D-06
     .969710142811D+00  .259406250000D+03 -.195703793449D+01 -.799783314185D-08
    -.165006873199D-09  .100000000000D+01  .158000000000D+04  .000000000000D+00
     .340000000000D+01  .000000000000D+00 -.107102096081D-07  .470000000000D+02
     .345606000000D+06  .400000000000D+01
29 10  4 22  2  0  0.0  .114407390356D-03  .284217094304D-11  .000000000000D+00
     .780000000000D+02 -.234375000000D+02  .439554023475D-08 -.211810190735D+01
    -.131689012051D-05  .304369395599D-02  .101253390312D-04  .515375919342D+04
     .352800000000D+06  .111758708954D-07 -.102163909717D+01  .353902578354D-07
     .960314324695D+00  .182718750000D+03 -.130225507761D+01 -.788890003292D-08
     .867893294096D-10  .100000000000D+01  .158000000000D+04  .000000000000D+00
     .240000000000D+01  .000000000000D+00 -.884756445885D-08  .780000000000D+02
     .345606000000D+06  .400000000000D+01
30 10  4 22  2  0  0.0  .235829502344D-03  .341060513165D-11  .000000000000D+00
     .440000000000D+02 -.784062500000D+02  .467269463649D-08  .250685298863D+01
    -.415928661823D-05  .120910489932D-01  .609084963799D-05  .515375255775D+04
     .352800000000D+06  .875443220139D-07 -.214365454530D+01 -.154599547386D-06
     .955543466495D+00  .254500000000D+03  .147531920072D+01 -.805997858760D-08
    -.139291516336D-09  .100000000000D+01  .158000000000D+04  .000000000000D+00
     .240000000000D+01  .000000000000D+00 -.791624188423D-08  .440000000000D+02
     .345606000000D+06  .400000000000D+01
31 10  4 22  2  0  0.0 -.408585183322D-04  .216004991671D-11  .000000000000D+00
     .850000000000D+02  .628125000000D+01  .450125892407D-08 -.142219767114D+01
     .406056642532D-06  .748317618854D-02  .459514558315D-05  .515366946030D+04
     .352800000000D+06 -.149011611938D-06  .313867012216D+01 -.186264514923D-07
     .976779628598D+00  .303937500000D+03 -.106050961467D+01 -.826605860023D-08
     .168578450541D-09  .100000000000D+01  .158000000000D+04  .000000000000D+00
     .240000000000D+01  .000000000000D+00 -.130385160446D-07  .850000000000D+02
     .345606000000D+06  .400000000000D+01
32 10  4 22  2  0  0.0  .461591407657D-04 -.841282599140D-11  .000000000000D+00
     .410000000000D+02  .181562500000D+02  .458411951841D-08 -.604661526511D+00
     .886619091034D-06  .126568421256D-01  .835768878460D-05  .515375331116D+04
     .352800000000D+06 -.175088644028D-06  .112752835543D+01 -.912696123123D-07
     .959529495478D+00  .221375000000D+03 -.992457592917D+00 -.823391440416D-08
    -.212508851847D-09  .100000000000D+01  .158000000000D+04  .000000000000D+00
     .240000000000D+01  .000000000000D+00 -.325962901115D-08  .410000000000D+02
     .345606000000D+06  .400000000000D+01
 4 10  4 22  1 59 44.0  .653406605124D-04  .852651282912D-11  .000000000000D+00
     .100000000000D+01  .288750000000D+02  .516092925913D-08 -.298208055592D+01
     .142492353916D-05  .907947111409D-02  .725314021111D-05  .515366955185D+04
     .352784000000D+06 -.931322574615D-08 -.288773445716D-02 -.117346644402D-06
     .939527211148D+00  .228906250000D+03  .602979624225D+00 -.822641409174D-08
     .143220251413D-09  .100000000000D+01  .158000000000D+04  .000000000000D+00
     .240000000000D+01  .000000000000D+00 -.605359673500D-08  .100000000000D+01
     .346596000000D+06  .400000000000D+01
